[{"OBJECT_NAME":"NOAA 18","OBJECT_ID":"2005-018A","EPOCH":"2026-03-21T13:45:58.695264","MEAN_MOTION":14.13713128,"ECCENTRICITY":0.00149178,"INCLINATION":98.814,"RA_OF_ASC_NODE":161.5135,"ARG_OF_PERICENTER":43.666,"MEAN_ANOMALY":316.569,"EPHEMERIS_TYPE":0,"CLASSIFICATION_TYPE":"U","NORAD_CAT_ID":28654,"ELEMENT_SET_NO":999,"REV_AT_EPOCH":7393,"BSTAR":5.3479662e-5,"MEAN_MOTION_DOT":5.7e-7,"MEAN_MOTION_DDOT":0},{"OBJECT_NAME":"NOAA 19","OBJECT_ID":"2009-005A","EPOCH":"2026-03-21T13:21:55.424736","MEAN_MOTION":14.13459014,"ECCENTRICITY":0.00126765,"INCLINATION":98.9585,"RA_OF_ASC_NODE":151.3467,"ARG_OF_PERICENTER":278.5346,"MEAN_ANOMALY":81.439,"EPHEMERIS_TYPE":0,"CLASSIFICATION_TYPE":"U","NORAD_CAT_ID":33591,"ELEMENT_SET_NO":999,"REV_AT_EPOCH":88210,"BSTAR":5.1164669e-5,"MEAN_MOTION_DOT":5.1e-7,"MEAN_MOTION_DDOT":0},{"OBJECT_NAME":"SUOMI NPP","OBJECT_ID":"2011-061A","EPOCH":"2026-03-21T14:02:03.913728","MEAN_MOTION":14.19496523,"ECCENTRICITY":0.00012682,"INCLINATION":98.7884,"RA_OF_ASC_NODE":22.0939,"ARG_OF_PERICENTER":178.05,"MEAN_ANOMALY":182.0681,"EPHEMERIS_TYPE":0,"CLASSIFICATION_TYPE":"U","NORAD_CAT_ID":37849,"ELEMENT_SET_NO":999,"REV_AT_EPOCH":74601,"BSTAR":7.9900392e-5,"MEAN_MOTION_DOT":1.24e-6,"MEAN_MOTION_DDOT":0},{"OBJECT_NAME":"NOAA 20 (JPSS-1)","OBJECT_ID":"2017-073A","EPOCH":"2026-03-21T14:23:08.832192","MEAN_MOTION":14.19539112,"ECCENTRICITY":0.00016752,"INCLINATION":98.7706,"RA_OF_ASC_NODE":20.8691,"ARG_OF_PERICENTER":122.032,"MEAN_ANOMALY":238.1019,"EPHEMERIS_TYPE":0,"CLASSIFICATION_TYPE":"U","NORAD_CAT_ID":43013,"ELEMENT_SET_NO":999,"REV_AT_EPOCH":43204,"BSTAR":6.4158759e-5,"MEAN_MOTION_DOT":9.1e-7,"MEAN_MOTION_DDOT":0}]
