NOAA 18                 
1 28654U 05018A   26080.57359601  .00000057  00000+0  53480-4 0  9996
2 28654  98.8140 161.5135 0014917  43.6660 316.5690 14.13713128 73939
NOAA 19                 
1 33591U 09005A   26080.55689149  .00000051  00000+0  51165-4 0  9995
2 33591  98.9585 151.3467 0012676 278.5346  81.4390 14.13459014882107
SUOMI NPP               
1 37849U 11061A   26080.58476752  .00000124  00000+0  79900-4 0  9995
2 37849  98.7884  22.0939 0001268 178.0500 182.0681 14.19496523746018
NOAA 20 (JPSS-1)        
1 43013U 17073A   26080.59940778  .00000091  00000+0  64159-4 0  9992
2 43013  98.7706  20.8691 0001675 122.0320 238.1019 14.19539112432048
